[{"OBJECT_NAME":"ONEWEB-0660","OBJECT_ID":"2023-029AA","EPOCH":"2026-06-02T19:35:46.706784","MEAN_MOTION":13.14502633,"ECCENTRICITY":0.0001657,"INCLINATION":87.8961,"RA_OF_ASC_NODE":292.5615,"ARG_OF_PERICENTER":89.4634,"MEAN_ANOMALY":270.6686,"EPHEMERIS_TYPE":0,"CLASSIFICATION_TYPE":"U","NORAD_CAT_ID":55820,"ELEMENT_SET_NO":999,"REV_AT_EPOCH":15751,"BSTAR":4.6243000000000004e-05,"MEAN_MOTION_DOT":3e-07,"MEAN_MOTION_DDOT":0.0},{"OBJECT_NAME":"ONEWEB-0661","OBJECT_ID":"2023-029AB","EPOCH":"2026-06-03T11:02:53.902176","MEAN_MOTION":13.14501994,"ECCENTRICITY":0.000154,"INCLINATION":87.8943,"RA_OF_ASC_NODE":292.4801,"ARG_OF_PERICENTER":87.398,"MEAN_ANOMALY":272.7326,"EPHEMERIS_TYPE":0,"CLASSIFICATION_TYPE":"U","NORAD_CAT_ID":55821,"ELEMENT_SET_NO":999,"REV_AT_EPOCH":15758,"BSTAR":0.00055433,"MEAN_MOTION_DOT":2.18e-06,"MEAN_MOTION_DDOT":0.0},{"OBJECT_NAME":"ONEWEB-0662","OBJECT_ID":"2023-029AC","EPOCH":"2026-06-02T19:26:38.334624","MEAN_MOTION":13.14501936,"ECCENTRICITY":0.0001643,"INCLINATION":87.894,"RA_OF_ASC_NODE":292.6168,"ARG_OF_PERICENTER":89.9631,"MEAN_ANOMALY":270.1687,"EPHEMERIS_TYPE":0,"CLASSIFICATION_TYPE":"U","NORAD_CAT_ID":55822,"ELEMENT_SET_NO":999,"REV_AT_EPOCH":15754,"BSTAR":-0.00028501,"MEAN_MOTION_DOT":-9.3e-07,"MEAN_MOTION_DDOT":0.0},{"OBJECT_NAME":"ONEWEB-0663","OBJECT_ID":"2023-029AD","EPOCH":"2026-06-03T07:11:49.594848","MEAN_MOTION":13.20868072,"ECCENTRICITY":0.0001477,"INCLINATION":87.9195,"RA_OF_ASC_NODE":277.2688,"ARG_OF_PERICENTER":96.5868,"MEAN_ANOMALY":263.5434,"EPHEMERIS_TYPE":0,"CLASSIFICATION_TYPE":"U","NORAD_CAT_ID":55823,"ELEMENT_SET_NO":999,"REV_AT_EPOCH":15931,"BSTAR":0.00012134,"MEAN_MOTION_DOT":6.2e-07,"MEAN_MOTION_DDOT":0.0},{"OBJECT_NAME":"ONEWEB-0664","OBJECT_ID":"2023-029AE","EPOCH":"2026-06-03T07:51:30.460032","MEAN_MOTION":13.20771371,"ECCENTRICITY":0.0002051,"INCLINATION":87.9177,"RA_OF_ASC_NODE":277.2455,"ARG_OF_PERICENTER":89.2634,"MEAN_ANOMALY":270.8734,"EPHEMERIS_TYPE":0,"CLASSIFICATION_TYPE":"U","NORAD_CAT_ID":55824,"ELEMENT_SET_NO":999,"REV_AT_EPOCH":15931,"BSTAR":0.00020141999999999998,"MEAN_MOTION_DOT":9.5e-07,"MEAN_MOTION_DDOT":0.0},{"OBJECT_NAME":"ONEWEB-0665","OBJECT_ID":"2023-029AF","EPOCH":"2026-06-03T10:58:20.179200","MEAN_MOTION":13.14502093,"ECCENTRICITY":0.0001601,"INCLINATION":87.8945,"RA_OF_ASC_NODE":292.4623,"ARG_OF_PERICENTER":91.6396,"MEAN_ANOMALY":268.4917,"EPHEMERIS_TYPE":0,"CLASSIFICATION_TYPE":"U","NORAD_CAT_ID":55825,"ELEMENT_SET_NO":999,"REV_AT_EPOCH":15760,"BSTAR":0.00046255000000000005,"MEAN_MOTION_DOT":1.84e-06,"MEAN_MOTION_DDOT":0.0},{"OBJECT_NAME":"ONEWEB-0666","OBJECT_ID":"2023-029AG","EPOCH":"2026-06-03T07:41:48.987168","MEAN_MOTION":13.20769624,"ECCENTRICITY":0.0002458,"INCLINATION":87.9183,"RA_OF_ASC_NODE":277.2362,"ARG_OF_PERICENTER":117.9769,"MEAN_ANOMALY":242.1614,"EPHEMERIS_TYPE":0,"CLASSIFICATION_TYPE":"U","NORAD_CAT_ID":55826,"ELEMENT_SET_NO":999,"REV_AT_EPOCH":15932,"BSTAR":2.4622e-05,"MEAN_MOTION_DOT":2.3e-07,"MEAN_MOTION_DDOT":0.0},{"OBJECT_NAME":"ONEWEB-0667","OBJECT_ID":"2023-029AH","EPOCH":"2026-06-03T07:34:33.907872","MEAN_MOTION":13.20771493,"ECCENTRICITY":0.0001822,"INCLINATION":87.9191,"RA_OF_ASC_NODE":277.1949,"ARG_OF_PERICENTER":99.1302,"MEAN_ANOMALY":261.0038,"EPHEMERIS_TYPE":0,"CLASSIFICATION_TYPE":"U","NORAD_CAT_ID":55827,"ELEMENT_SET_NO":999,"REV_AT_EPOCH":15931,"BSTAR":1.8235e-05,"MEAN_MOTION_DOT":2e-07,"MEAN_MOTION_DDOT":0.0},{"OBJECT_NAME":"ONEWEB-0669","OBJECT_ID":"2023-029AJ","EPOCH":"2026-06-03T07:27:16.965792","MEAN_MOTION":13.2077084,"ECCENTRICITY":0.0002383,"INCLINATION":87.9195,"RA_OF_ASC_NODE":277.2059,"ARG_OF_PERICENTER":94.2481,"MEAN_ANOMALY":265.8925,"EPHEMERIS_TYPE":0,"CLASSIFICATION_TYPE":"U","NORAD_CAT_ID":55828,"ELEMENT_SET_NO":999,"REV_AT_EPOCH":15931,"BSTAR":8.4649e-05,"MEAN_MOTION_DOT":4.7e-07,"MEAN_MOTION_DDOT":0.0},{"OBJECT_NAME":"ONEWEB-0670","OBJECT_ID":"2023-029AK","EPOCH":"2026-06-03T10:26:21.954048","MEAN_MOTION":13.14492551,"ECCENTRICITY":0.0002187,"INCLINATION":87.8988,"RA_OF_ASC_NODE":292.4816,"ARG_OF_PERICENTER":96.4969,"MEAN_ANOMALY":263.641,"EPHEMERIS_TYPE":0,"CLASSIFICATION_TYPE":"U","NORAD_CAT_ID":55829,"ELEMENT_SET_NO":999,"REV_AT_EPOCH":15762,"BSTAR":0.0035180000000000003,"MEAN_MOTION_DOT":1.317e-05,"MEAN_MOTION_DDOT":0.0},{"OBJECT_NAME":"ONEWEB-0671","OBJECT_ID":"2023-029AL","EPOCH":"2026-06-03T11:48:52.846848","MEAN_MOTION":13.19727806,"ECCENTRICITY":0.0001664,"INCLINATION":87.9144,"RA_OF_ASC_NODE":307.7055,"ARG_OF_PERICENTER":95.0299,"MEAN_ANOMALY":265.1023,"EPHEMERIS_TYPE":0,"CLASSIFICATION_TYPE":"U","NORAD_CAT_ID":55830,"ELEMENT_SET_NO":999,"REV_AT_EPOCH":15709,"BSTAR":0.00055641,"MEAN_MOTION_DOT":2.36e-06,"MEAN_MOTION_DDOT":0.0},{"OBJECT_NAME":"ONEWEB-0672","OBJECT_ID":"2023-029AM","EPOCH":"2026-06-03T07:20:00.283776","MEAN_MOTION":13.20770462,"ECCENTRICITY":0.0002149,"INCLINATION":87.9202,"RA_OF_ASC_NODE":277.1999,"ARG_OF_PERICENTER":108.0971,"MEAN_ANOMALY":252.0397,"EPHEMERIS_TYPE":0,"CLASSIFICATION_TYPE":"U","NORAD_CAT_ID":55831,"ELEMENT_SET_NO":999,"REV_AT_EPOCH":15931,"BSTAR":0.00021407000000000002,"MEAN_MOTION_DOT":1e-06,"MEAN_MOTION_DDOT":0.0},{"OBJECT_NAME":"ONEWEB-0673","OBJECT_ID":"2023-029AN","EPOCH":"2026-06-03T11:15:55.971648","MEAN_MOTION":13.19725766,"ECCENTRICITY":0.0001772,"INCLINATION":87.9168,"RA_OF_ASC_NODE":307.7007,"ARG_OF_PERICENTER":90.3964,"MEAN_ANOMALY":269.7372,"EPHEMERIS_TYPE":0,"CLASSIFICATION_TYPE":"U","NORAD_CAT_ID":55832,"ELEMENT_SET_NO":999,"REV_AT_EPOCH":15709,"BSTAR":0.00012336,"MEAN_MOTION_DOT":6.2e-07,"MEAN_MOTION_DDOT":0.0},{"OBJECT_NAME":"ONEWEB-0674","OBJECT_ID":"2023-029AP","EPOCH":"2026-06-03T07:51:05.015232","MEAN_MOTION":13.14503282,"ECCENTRICITY":0.0001826,"INCLINATION":87.8946,"RA_OF_ASC_NODE":292.4804,"ARG_OF_PERICENTER":91.2773,"MEAN_ANOMALY":268.8566,"EPHEMERIS_TYPE":0,"CLASSIFICATION_TYPE":"U","NORAD_CAT_ID":55833,"ELEMENT_SET_NO":999,"REV_AT_EPOCH":15759,"BSTAR":-0.0001031,"MEAN_MOTION_DOT":-2.5e-07,"MEAN_MOTION_DDOT":0.0},{"OBJECT_NAME":"ONEWEB-0675","OBJECT_ID":"2023-029AQ","EPOCH":"2026-06-03T11:37:31.823904","MEAN_MOTION":13.19727388,"ECCENTRICITY":0.000193,"INCLINATION":87.9157,"RA_OF_ASC_NODE":307.7084,"ARG_OF_PERICENTER":105.8365,"MEAN_ANOMALY":254.298,"EPHEMERIS_TYPE":0,"CLASSIFICATION_TYPE":"U","NORAD_CAT_ID":55834,"ELEMENT_SET_NO":999,"REV_AT_EPOCH":15711,"BSTAR":-3.8806e-05,"MEAN_MOTION_DOT":-3e-08,"MEAN_MOTION_DDOT":0.0},{"OBJECT_NAME":"ONEWEB-0720","OBJECT_ID":"2023-029AR","EPOCH":"2026-06-03T11:26:08.910528","MEAN_MOTION":13.19726764,"ECCENTRICITY":0.0001553,"INCLINATION":87.9162,"RA_OF_ASC_NODE":307.711,"ARG_OF_PERICENTER":107.6174,"MEAN_ANOMALY":252.5128,"EPHEMERIS_TYPE":0,"CLASSIFICATION_TYPE":"U","NORAD_CAT_ID":55835,"ELEMENT_SET_NO":999,"REV_AT_EPOCH":15703,"BSTAR":-1.6971e-05,"MEAN_MOTION_DOT":6e-08,"MEAN_MOTION_DDOT":0.0}]